{"fetched_at":"2026-07-05T12:48:02.422Z","source":"https://celestrak.org/NORAD/elements/gp.php?NAME=JILIN&FORMAT=JSON","constellation":"jilin-1","records":[{"OBJECT_NAME":"JILIN-1 GAOFEN 3H","OBJECT_ID":"2020-065G","EPOCH":"2026-07-05T05:32:17.037600","CLASSIFICATION_TYPE":"U","MEAN_MOTION":15.70800702,"ECCENTRICITY":0.00048063,"INCLINATION":97.2179,"RA_OF_ASC_NODE":239.8628,"ARG_OF_PERICENTER":239.9941,"MEAN_ANOMALY":120.0845,"EPHEMERIS_TYPE":0,"NORAD_CAT_ID":46460,"ELEMENT_SET_NO":999,"REV_AT_EPOCH":32271,"BSTAR":0.001037318,"MEAN_MOTION_DOT":0.00130385,"MEAN_MOTION_DDOT":0},{"OBJECT_NAME":"JILIN-1 KUANFU-01B","OBJECT_ID":"2021-061A","EPOCH":"2026-07-05T06:23:47.570784","CLASSIFICATION_TYPE":"U","MEAN_MOTION":15.09775548,"ECCENTRICITY":0.00068957,"INCLINATION":97.5204,"RA_OF_ASC_NODE":262.1259,"ARG_OF_PERICENTER":13.8076,"MEAN_ANOMALY":346.3341,"EPHEMERIS_TYPE":0,"NORAD_CAT_ID":49003,"ELEMENT_SET_NO":999,"REV_AT_EPOCH":27607,"BSTAR":0.0002338187,"MEAN_MOTION_DOT":0.00003714,"MEAN_MOTION_DDOT":0},{"OBJECT_NAME":"JILIN-1 GAOFEN 2D","OBJECT_ID":"2021-086A","EPOCH":"2026-07-05T04:13:31.325664","CLASSIFICATION_TYPE":"U","MEAN_MOTION":15.10806597,"ECCENTRICITY":0.00345031,"INCLINATION":97.6497,"RA_OF_ASC_NODE":308.8865,"ARG_OF_PERICENTER":83.7091,"MEAN_ANOMALY":276.8067,"EPHEMERIS_TYPE":0,"NORAD_CAT_ID":49256,"ELEMENT_SET_NO":999,"REV_AT_EPOCH":26343,"BSTAR":0.00042692134,"MEAN_MOTION_DOT":0.00007128,"MEAN_MOTION_DDOT":0},{"OBJECT_NAME":"JILIN-1 GAOFEN 2F","OBJECT_ID":"2021-097A","EPOCH":"2026-07-05T06:50:19.386240","CLASSIFICATION_TYPE":"U","MEAN_MOTION":15.07899893,"ECCENTRICITY":0.00192083,"INCLINATION":97.6729,"RA_OF_ASC_NODE":312.443,"ARG_OF_PERICENTER":161.5012,"MEAN_ANOMALY":198.6918,"EPHEMERIS_TYPE":0,"NORAD_CAT_ID":49338,"ELEMENT_SET_NO":999,"REV_AT_EPOCH":25904,"BSTAR":0.0004202624,"MEAN_MOTION_DOT":0.00006412,"MEAN_MOTION_DDOT":0},{"OBJECT_NAME":"JILIN-1 KUANFU 01C","OBJECT_ID":"2022-048A","EPOCH":"2026-07-05T04:34:38.662464","CLASSIFICATION_TYPE":"U","MEAN_MOTION":15.09563914,"ECCENTRICITY":0.00166639,"INCLINATION":97.5246,"RA_OF_ASC_NODE":263.038,"ARG_OF_PERICENTER":256.8812,"MEAN_ANOMALY":103.0557,"EPHEMERIS_TYPE":0,"NORAD_CAT_ID":52443,"ELEMENT_SET_NO":999,"REV_AT_EPOCH":22991,"BSTAR":0.00024764901,"MEAN_MOTION_DOT":0.00003924,"MEAN_MOTION_DDOT":0},{"OBJECT_NAME":"JILIN-1 GAOFEN 3D27","OBJECT_ID":"2022-048B","EPOCH":"2026-07-05T04:04:36.167520","CLASSIFICATION_TYPE":"U","MEAN_MOTION":15.80304935,"ECCENTRICITY":0.00037702,"INCLINATION":97.5721,"RA_OF_ASC_NODE":301.7992,"ARG_OF_PERICENTER":270.2543,"MEAN_ANOMALY":89.8292,"EPHEMERIS_TYPE":0,"NORAD_CAT_ID":52444,"ELEMENT_SET_NO":999,"REV_AT_EPOCH":23231,"BSTAR":0.0011767082,"MEAN_MOTION_DOT":0.00225952,"MEAN_MOTION_DDOT":0},{"OBJECT_NAME":"JILIN-1 GAOFEN 3D28","OBJECT_ID":"2022-048C","EPOCH":"2026-07-05T04:37:07.979808","CLASSIFICATION_TYPE":"U","MEAN_MOTION":15.84472033,"ECCENTRICITY":0.0003577,"INCLINATION":97.567,"RA_OF_ASC_NODE":302.0597,"ARG_OF_PERICENTER":258.5715,"MEAN_ANOMALY":101.5153,"EPHEMERIS_TYPE":0,"NORAD_CAT_ID":52445,"ELEMENT_SET_NO":999,"REV_AT_EPOCH":23237,"BSTAR":0.0011556812,"MEAN_MOTION_DOT":0.00270537,"MEAN_MOTION_DDOT":0},{"OBJECT_NAME":"JILIN-1 GAOFEN 3D29","OBJECT_ID":"2022-048D","EPOCH":"2026-07-05T06:47:00.573792","CLASSIFICATION_TYPE":"U","MEAN_MOTION":15.80524196,"ECCENTRICITY":0.00034033,"INCLINATION":97.5717,"RA_OF_ASC_NODE":302.2858,"ARG_OF_PERICENTER":242.8336,"MEAN_ANOMALY":117.2585,"EPHEMERIS_TYPE":0,"NORAD_CAT_ID":52446,"ELEMENT_SET_NO":999,"REV_AT_EPOCH":23235,"BSTAR":0.0010128748,"MEAN_MOTION_DOT":0.00195724,"MEAN_MOTION_DDOT":0},{"OBJECT_NAME":"JILIN-1 GAOFEN 3D31","OBJECT_ID":"2022-048F","EPOCH":"2026-07-05T05:52:27.475680","CLASSIFICATION_TYPE":"U","MEAN_MOTION":15.88997802,"ECCENTRICITY":0.00040536,"INCLINATION":97.5702,"RA_OF_ASC_NODE":303.4414,"ARG_OF_PERICENTER":247.6276,"MEAN_ANOMALY":112.4567,"EPHEMERIS_TYPE":0,"NORAD_CAT_ID":52448,"ELEMENT_SET_NO":999,"REV_AT_EPOCH":23244,"BSTAR":0.0011487151,"MEAN_MOTION_DOT":0.0032431,"MEAN_MOTION_DDOT":0.000040402513},{"OBJECT_NAME":"JILIN-1 GAOFEN 03D09","OBJECT_ID":"2022-098B","EPOCH":"2026-07-05T08:08:09.832416","CLASSIFICATION_TYPE":"U","MEAN_MOTION":15.69024088,"ECCENTRICITY":0.00026594,"INCLINATION":97.5619,"RA_OF_ASC_NODE":317.4045,"ARG_OF_PERICENTER":265.8349,"MEAN_ANOMALY":94.2608,"EPHEMERIS_TYPE":0,"NORAD_CAT_ID":53445,"ELEMENT_SET_NO":999,"REV_AT_EPOCH":21747,"BSTAR":0.00074065218,"MEAN_MOTION_DOT":0.00085998,"MEAN_MOTION_DDOT":0},{"OBJECT_NAME":"JILIN-1 GAOFEN 03D43","OBJECT_ID":"2022-098E","EPOCH":"2026-07-05T08:06:16.121376","CLASSIFICATION_TYPE":"U","MEAN_MOTION":15.72513838,"ECCENTRICITY":0.00029265,"INCLINATION":97.5603,"RA_OF_ASC_NODE":318.5083,"ARG_OF_PERICENTER":256.8885,"MEAN_ANOMALY":103.2052,"EPHEMERIS_TYPE":0,"NORAD_CAT_ID":53448,"ELEMENT_SET_NO":999,"REV_AT_EPOCH":21754,"BSTAR":0.00077509463,"MEAN_MOTION_DOT":0.00104287,"MEAN_MOTION_DDOT":0},{"OBJECT_NAME":"JILIN-1 GAOFEN 03D08","OBJECT_ID":"2022-155A","EPOCH":"2026-07-05T07:37:24.235104","CLASSIFICATION_TYPE":"U","MEAN_MOTION":15.6657942,"ECCENTRICITY":0.00036858,"INCLINATION":97.6228,"RA_OF_ASC_NODE":333.1908,"ARG_OF_PERICENTER":263.1004,"MEAN_ANOMALY":96.9837,"EPHEMERIS_TYPE":0,"NORAD_CAT_ID":54251,"ELEMENT_SET_NO":999,"REV_AT_EPOCH":20265,"BSTAR":0.00068990015,"MEAN_MOTION_DOT":0.00072435,"MEAN_MOTION_DDOT":0},{"OBJECT_NAME":"JILIN-1 GAOFEN 03D51","OBJECT_ID":"2022-155B","EPOCH":"2026-07-05T08:14:51.448992","CLASSIFICATION_TYPE":"U","MEAN_MOTION":15.64025869,"ECCENTRICITY":0.00038411,"INCLINATION":97.6252,"RA_OF_ASC_NODE":332.5722,"ARG_OF_PERICENTER":269.0721,"MEAN_ANOMALY":91.0097,"EPHEMERIS_TYPE":0,"NORAD_CAT_ID":54252,"ELEMENT_SET_NO":999,"REV_AT_EPOCH":20258,"BSTAR":0.000622335,"MEAN_MOTION_DOT":0.00058938,"MEAN_MOTION_DDOT":0},{"OBJECT_NAME":"JILIN-1 GAOFEN 03D53","OBJECT_ID":"2022-155C","EPOCH":"2026-07-05T07:42:46.953792","CLASSIFICATION_TYPE":"U","MEAN_MOTION":15.53929517,"ECCENTRICITY":0.00045031,"INCLINATION":97.6242,"RA_OF_ASC_NODE":327.9138,"ARG_OF_PERICENTER":294.5425,"MEAN_ANOMALY":65.5358,"EPHEMERIS_TYPE":0,"NORAD_CAT_ID":54253,"ELEMENT_SET_NO":999,"REV_AT_EPOCH":20230,"BSTAR":0.00059568664,"MEAN_MOTION_DOT":0.00038449,"MEAN_MOTION_DDOT":0},{"OBJECT_NAME":"JILIN-1 GAOFEN 03D54","OBJECT_ID":"2022-155D","EPOCH":"2026-07-04T04:56:11.510592","CLASSIFICATION_TYPE":"U","MEAN_MOTION":16.24574902,"ECCENTRICITY":0.0012818,"INCLINATION":97.6175,"RA_OF_ASC_NODE":340.8749,"ARG_OF_PERICENTER":269.0365,"MEAN_ANOMALY":90.9457,"EPHEMERIS_TYPE":0,"NORAD_CAT_ID":54254,"ELEMENT_SET_NO":999,"REV_AT_EPOCH":20303,"BSTAR":0.00096265,"MEAN_MOTION_DOT":0.02649382,"MEAN_MOTION_DDOT":0.0000025932},{"OBJECT_NAME":"JILIN-1 GAOFEN 03D52","OBJECT_ID":"2022-155E","EPOCH":"2026-07-05T07:32:50.034336","CLASSIFICATION_TYPE":"U","MEAN_MOTION":15.61311093,"ECCENTRICITY":0.0003265,"INCLINATION":97.6225,"RA_OF_ASC_NODE":330.7992,"ARG_OF_PERICENTER":289.4174,"MEAN_ANOMALY":70.673,"EPHEMERIS_TYPE":0,"NORAD_CAT_ID":54255,"ELEMENT_SET_NO":999,"REV_AT_EPOCH":20253,"BSTAR":0.00063907544,"MEAN_MOTION_DOT":0.00054436,"MEAN_MOTION_DDOT":0}]}
